Type,Name,Street Address,City ,State,Country,"geocode (combine street address, city, state, country)",Lat,Long,Link to Original Source
Hotel,Clark,1824 Central Ave.,Los Angeles,CA,United States,"1824 Central Ave., Los Angeles, California, United States",34.049784,-118.046846,https://digitalcollections.nypl.org/items/29219280-892b-0132-4271-58d385a7bbd0
Hotel,Arcade,542 Ceres Ave.,Los Angeles,CA,United States,"542 Ceres Ave., Los Angeles, California, United States",34.0405643,-118.2407291,https://digitalcollections.nypl.org/items/29219280-892b-0132-4271-58d385a7bbd1
Hotel,Lincoln,549 Ceres Ave.,Los Angeles,CA,United States,"549 Ceres Ave., Los Angeles, California, United States",34.040432,-118.241163,https://digitalcollections.nypl.org/items/29219280-892b-0132-4271-58d385a7bbd2
Hotel,Sberidan,1824 Central Ave.,Los Angeles,CA,United States,"1824 Central Ave., Los Angeles, California, United States",34.049784,-118.046846,https://digitalcollections.nypl.org/items/29219280-892b-0132-4271-58d385a7bbd3
Hotel,McAlpin,648 Stanford Ave.,Los Angeles,CA,United States,"648 Stanford Ave., Los Angeles, California, United States",34.0395808,-118.2436406,https://digitalcollections.nypl.org/items/29219280-892b-0132-4271-58d385a7bbd4
Hotel,Elite,1217 Central Ave.,Los Angeles,CA,United States,"1217 South Central Ave., Los Angeles, California, United States",34.0300306,-118.245383,https://digitalcollections.nypl.org/items/29219280-892b-0132-4271-58d385a7bbd5
Hotel,Olympic,843 South Central Ave,Los Angeles,CA,United States,"843 South Central Ave, Los Angeles, California, United States",34.0325885,-118.2438409,https://digitalcollections.nypl.org/items/29219280-892b-0132-4271-58d385a7bbd6
Hotel,Regal,815 East 6th St.,Los Angeles,CA,United States,"815 East 6th St., Los Angeles, California, United States",34.0406819,-118.242206,https://digitalcollections.nypl.org/items/29219280-892b-0132-4271-58d385a7bbd7
Hotel,Sojourner's ,1119 East Adams Blvd.,Los Angeles,CA,United States,"1119 East Adams Blvd., Los Angeles, California, United States",34.018663,-118.2541265,https://digitalcollections.nypl.org/items/29219280-892b-0132-4271-58d385a7bbd8
Hotel,Kentucky,1123 Central Ave.,Los Angeles,CA,United States,"1123 Central Ave., Los Angeles, California, United States",34.0304349,-118.2451066,https://digitalcollections.nypl.org/items/29219280-892b-0132-4271-58d385a7bbd9
Hotel,Avon,405 South Hewitt,Los Angeles,CA,United States,"405 South Hewitt, Los Angeles, California, United States",34.0432096,-118.2354324,https://digitalcollections.nypl.org/items/29219280-892b-0132-4271-58d385a7bbd10
Hotel,Dunbar,4225 South Central Ave.,Los Angeles,CA,United States,"4225 South Central Ave., Los Angeles, California, United States",34.0068211,-118.2567161,https://digitalcollections.nypl.org/items/29219280-892b-0132-4271-58d385a7bbd11
Hotel,Morris,809 East 5th St.,Los Angeles,CA,United States,"809 East 5th St., Los Angeles, California, United States",34.0426093,-118.2408277,https://digitalcollections.nypl.org/items/29219280-892b-0132-4271-58d385a7bbd12
Hotel,Glacier ,523 Stanfard St.,Los Angeles,CA,United States,"523 Stanford St., Los Angeles, California, United States",34.042134,-118.241947,https://digitalcollections.nypl.org/items/29219280-892b-0132-4271-58d385a7bbd13
Tourist Homes,Mrs. B. Hoffman,760 West 17th St.,Los Angeles,CA,United States,"760 West 17th St., Los Angeles, California, United States",33.7289858,-118.2937575,https://digitalcollections.nypl.org/items/29219280-892b-0132-4271-58d385a7bbd14
Restaurants,Marble Inn,1820 Imperial H'way,Los Angeles,CA,United States,"1820 Imperial Highway, Los Angeles, California, United States",33.9309055,-118.3096874,https://digitalcollections.nypl.org/items/29219280-892b-0132-4271-58d385a7bbd15
Restaurants,Robertson's,4815 South Central Ave.,Los Angeles,CA,United States,"4815 South Central Ave., Los Angeles, California, United States",33.9997965,-118.2564854,https://digitalcollections.nypl.org/items/29219280-892b-0132-4271-58d385a7bbd16
Restaurants,Chief,4400 South Avalon Blvd.,Los Angeles,CA,United States,"4400 South Avalon Blvd., Los Angeles, California, United States",34.0037214,-118.2650884,https://digitalcollections.nypl.org/items/29219280-892b-0132-4271-58d385a7bbd17
Restaurants,Ivie's ,1105 1/2 East Vernon Ave.,Los Angeles,CA,United States,"1105 1/2 East Vernon Ave., Los Angeles, California, United States",34.0037146,-118.2641197,https://digitalcollections.nypl.org/items/29219280-892b-0132-4271-58d385a7bbd18
Restaurants,Pig N' Pat ,4200 South Central Ave.,Los Angeles,CA,United States,"4200 South Central Ave., Los Angeles, California, United States",34.00738,-118.256294,https://digitalcollections.nypl.org/items/29219280-892b-0132-4271-58d385a7bbd19
Restaurants,Henry Bros.,10359 Wilmington  ,Los Angeles,CA,United States,"10359 Wilmington, Los Angeles, California, United States",33.9419451,-118.2390976,https://digitalcollections.nypl.org/items/29219280-892b-0132-4271-58d385a7bbd20
Restaurants,Banks,4019 South Avalon Blvd.,Los Angeles,CA,United States,"4019 South Avalon Blvd., Los Angeles, California, United States",34.0107071,-118.2652704,https://digitalcollections.nypl.org/items/29219280-892b-0132-4271-58d385a7bbd21
Restaurants,Nita's ,125 West Vernon Ave. ,Los Angeles,CA,United States,"125 West Vernon Ave., Los Angeles, California, United States",34.004007,-118.2746926,https://digitalcollections.nypl.org/items/29219280-892b-0132-4271-58d385a7bbd22
Restaurants,John's,3519 South Western,Los Angeles,CA,United States,"3519 South Western, Los Angeles, California, United States",34.0241033,-118.3089122,https://digitalcollections.nypl.org/items/29219280-892b-0132-4271-58d385a7bbd23
Restaurants,Woodson's ,Jefferson & Raymond Sts.,Los Angeles,CA,United States,"West Jefferson Blvd & Raymond Ave., Los Angeles, California, United States",34.0255216,-118.298086,https://digitalcollections.nypl.org/items/29219280-892b-0132-4271-58d385a7bbd24
Restaurants,Eddie's ,4201 South Central Ave.,Los Angeles,CA,United States,"4201 South Central Ave., Los Angeles, California, United States",34.0072416,-118.2567539,https://digitalcollections.nypl.org/items/29219280-892b-0132-4271-58d385a7bbd25
Restaurants,Blue Room ,9900 South Central Ave.,Los Angeles,CA,United States,"9900 South Central Ave., Los Angeles, California, United States",33.946779,-118.2537655,https://digitalcollections.nypl.org/items/29219280-892b-0132-4271-58d385a7bbd26
Restaurants,Casa Blanca,2801 South San Pedro St.,Los Angeles,CA,United States,"2801 South San Pedro St., Los Angeles, California, United States",34.0198396,-118.2626854,https://digitalcollections.nypl.org/items/29219280-892b-0132-4271-58d385a7bbd27
Restaurants,Gingham,111 North San Pedro Ave.,Los Angeles,CA,United States,"111 North San Pedro Ave., Los Angeles, California, United States",34.0500968,-118.2413802,https://digitalcollections.nypl.org/items/29219280-892b-0132-4271-58d385a7bbd28
Restaurants,Zombie,5432 South Central Ave,Los Angeles,CA,United States,"5432 South Central Ave, Los Angeles, California, United States",33.993215,-118.2564656,https://digitalcollections.nypl.org/items/29219280-892b-0132-4271-58d385a7bbd29
Restaurants,Bobbie's,4001 Avalon Ave.,Los Angeles,CA,United States,"4001 Avalon Ave., Los Angeles, California, United States",34.0110622,-118.2652735,https://digitalcollections.nypl.org/items/29219280-892b-0132-4271-58d385a7bbd30
Restaurants,The Fawn,Western & 29th St.,Los Angeles,CA,United States,"Western & 29th St., Los Angeles, California, United States",34.0290987,-118.3089481,https://digitalcollections.nypl.org/items/29219280-892b-0132-4271-58d385a7bbd31
Restaurants,Are,4067 South Central Ave.,Los Angeles,CA,United States,"4067 South Central Ave., Los Angeles, California, United States",34.0095265,-118.2567986,https://digitalcollections.nypl.org/items/29219280-892b-0132-4271-58d385a7bbd32
Restaurants,Shadowland ,4505 Avalon Ave.,Los Angeles,CA,United States,"4505 Avalon Ave., Los Angeles, California, United States",34.0023144,-118.2655856,https://digitalcollections.nypl.org/items/29219280-892b-0132-4271-58d385a7bbd33
Restaurants,Hi Jenks ,4428 Avalon Ave.,Los Angeles,CA,United States,"4428 Avalon Ave., Los Angeles, California, United States",34.0030287,-118.2649679,https://digitalcollections.nypl.org/items/29219280-892b-0132-4271-58d385a7bbd34
Restaurants,Waffle Shop,1063 East 43 Street,Los Angeles,CA,United States,"1063 East 43 Street, Los Angeles, California, United States",34.0059342,-118.2569258,https://digitalcollections.nypl.org/items/29219280-892b-0132-4271-58d385a7bbd35
Restaurants,Clifton's ,618 S. Olive Street,Los Angeles,CA,United States,"618 S. Olive Street, Los Angeles, California, United States",34.0472573,-118.2544149,https://digitalcollections.nypl.org/items/29219280-892b-0132-4271-58d385a7bbd36
Restaurants,Digby ,1st & Alameda Street,Los Angeles,CA,United States,"1st & Alameda Street, Los Angeles, California, United States",34.0489428,-118.2381171,https://digitalcollections.nypl.org/items/29219280-892b-0132-4271-58d385a7bbd37
Beauty Parlor,Creole,2221 Central Ave.,Los Angeles,CA,United States,"2221 South Central Ave., Los Angeles, California, United States",34.0216868,-118.2533982,https://digitalcollections.nypl.org/items/29219280-892b-0132-4271-58d385a7bbd38
Beauty Parlor,Mary Esther,1709 East 103rd St.,Los Angeles,CA,United States,"1709 East 103rd St., Los Angeles, California, United States",33.9432309,-118.2428998,https://digitalcollections.nypl.org/items/29219280-892b-0132-4271-58d385a7bbd39
Beauty Parlor,Tex,2830 South San Pedro St.,Los Angeles,CA,United States,"2830 South San Pedro St., Los Angeles, California, United States",34.0195988,-118.2625863,https://digitalcollections.nypl.org/items/29219280-892b-0132-4271-58d385a7bbd40
Beauty Parlor,Sherwoods,5113 South Central Ave.,Los Angeles,CA,United States,"5113 South Central Ave., Los Angeles, California, United States",33.9961735,-118.2565996,https://digitalcollections.nypl.org/items/29219280-892b-0132-4271-58d385a7bbd41
Beauty Parlor,Studio,2515 South Central Ave.,Los Angeles,CA,United States,"2515 South Central Ave., Los Angeles, California, United States",34.0192487,-118.2553961,https://digitalcollections.nypl.org/items/29219280-892b-0132-4271-58d385a7bbd42
Beauty Parlor,Continental ,5203 Hopper Ave.,Los Angeles,CA,United States,"5203 Hooper Ave., Los Angeles, California, United States",33.9957733,-118.2521273,https://digitalcollections.nypl.org/items/29219280-892b-0132-4271-58d385a7bbd43
Beauty Parlor,Anna Mae's ,4446 Avalon Ave.,Los Angeles,CA,United States,"4446 Avalon Ave., Los Angeles, California, United States",34.0027133,-118.2652502,https://digitalcollections.nypl.org/items/29219280-892b-0132-4271-58d385a7bbd44
Beauty Parlor,Gorum,5440 South Central Ave.,Los Angeles,CA,United States,"5440 South Central Ave., Los Angeles, California, United States",33.9931398,-118.2560978,https://digitalcollections.nypl.org/items/29219280-892b-0132-4271-58d385a7bbd45
Beauty Parlor,Louise,816 East 5th St.,Los Angeles,CA,United States,"816 East 5th St., Los Angeles, California, United States",34.0422312,-118.2407202,https://digitalcollections.nypl.org/items/29219280-892b-0132-4271-58d385a7bbd46
Beauty Parlor,Triangle,43 San Pedro & Walls Sts.,Los Angeles,CA,United States,"43 San Pedro & Walls Sts., Los Angeles, California, United States",34.005327,-118.2716747,https://digitalcollections.nypl.org/items/29219280-892b-0132-4271-58d385a7bbd47
Beauty Parlor,Colonial ,1813 1/2 South Central Ave.,Los Angeles,CA,United States,"1813 1/2 South Central Ave., Los Angeles, California, United States",34.0443738,-118.2393999,https://digitalcollections.nypl.org/items/29219280-892b-0132-4271-58d385a7bbd48
Beauty Parlor,Dunbar,4225 South Central Ave.,Los Angeles,CA,United States,"4225 South Central Ave., Los Angeles, California, United States",34.0068211,-118.2567161,https://digitalcollections.nypl.org/items/29219280-892b-0132-4271-58d385a7bbd49
Beauty Parlor,M. Wilson ,2818 South Central Ave.,Los Angeles,CA,United States,"2818 South Central Ave., Los Angeles, California, United States",34.0161073,-118.2560396,https://digitalcollections.nypl.org/items/29219280-892b-0132-4271-58d385a7bbd50
Beauty Parlor,Beauty Salon ,1195 East 35th St. ,Los Angeles,CA,United States,"1195 East 35th St., Los Angeles, California, United States",34.0121674,-118.2543148,https://digitalcollections.nypl.org/items/29219280-892b-0132-4271-58d385a7bbd51
Barber Shop,Hotel,1808 South Central Ave.,Los Angeles,CA,United States,"1808 South Central Ave., Los Angeles, California, United States",34.024789,-118.2499421,https://digitalcollections.nypl.org/items/29219280-892b-0132-4271-58d385a7bbd52
Barber Shop,Elite,4204 South Central Ave.,Los Angeles,CA,United States,"4204 South Central Ave., Los Angeles, California, United States",34.007277,-118.256093,https://digitalcollections.nypl.org/items/29219280-892b-0132-4271-58d385a7bbd53
Barber Shop,Connie's,2204 South Central Ave.,Los Angeles,CA,United States,"2204 South Central Ave., Los Angeles, California, United States",34.0213693,-118.2531918,https://digitalcollections.nypl.org/items/29219280-892b-0132-4271-58d385a7bbd54
Barber Shop,Bertha's ,1434 West Jefferson Blvd.,Los Angeles,CA,United States,"1434 West Jefferson Blvd., Los Angeles, California, United States",34.0255224,-118.2984919,https://digitalcollections.nypl.org/items/29219280-892b-0132-4271-58d385a7bbd55
Barber Shop,Personality,4222 South Central Ave.,Los Angeles,CA,United States,"4222 South Central Ave., Los Angeles, California, United States",34.006817,-118.256106,https://digitalcollections.nypl.org/items/29219280-892b-0132-4271-58d385a7bbd56
Barber Shop,Williams,3615 South Western,Los Angeles,CA,United States,"3615 South Western, Los Angeles, California, United States",34.022398,-118.3091882,https://digitalcollections.nypl.org/items/29219280-892b-0132-4271-58d385a7bbd57
Barber Shop,Echo,43rd & Central Ave.,Los Angeles,CA,United States,"S Central Ave & E 43rd St, Los Angeles, California, United States",34.0057592,-118.2565086,https://digitalcollections.nypl.org/items/29219280-892b-0132-4271-58d385a7bbd58
Tavern,Marble Inn,1820 Imperial Hwy,Los Angeles,CA,United States,"1820 Imperial Highway, Los Angeles, California, United States",33.9309055,-118.3096874,https://digitalcollections.nypl.org/items/29219280-892b-0132-4271-58d385a7bbd59
Tavern,Margot,5259 South Central Ave.,Los Angeles,CA,United States,"5259 South Central Ave., Los Angeles, California, United States",33.9948172,-118.2564673,https://digitalcollections.nypl.org/items/29219280-892b-0132-4271-58d385a7bbd60
Tavern,Emerald Room,901 East 6th St.,Los Angeles,CA,United States,"901 East 6th St., Los Angeles, California, United States",34.03994,-118.2410503,https://digitalcollections.nypl.org/items/29219280-892b-0132-4271-58d385a7bbd61
Tavern,Golden Gate,1719 East 103rd St.,Los Angeles,CA,United States,"1719 East 103rd St., Los Angeles, California, United States",33.9432336,-118.2426669,https://digitalcollections.nypl.org/items/29219280-892b-0132-4271-58d385a7bbd62
Tavern,Paradise,5505 South Central Ave.,Los Angeles,CA,United States,"5505 South Central Ave., Los Angeles, California, United States",33.992359,-118.2566537,https://digitalcollections.nypl.org/items/29219280-892b-0132-4271-58d385a7bbd63
Tavern,Samba,5th & Towns Ave.,Los Angeles,CA,United States,"E 5th St & Towne Ave, Los Angeles, California, United States",34.0430366,-118.2420079,https://digitalcollections.nypl.org/items/29219280-892b-0132-4271-58d385a7bbd64
Tavern,Onyx ,1808 South Central Ave.,Los Angeles,CA,United States,"1808 South Central Ave., Los Angeles, California, United States",34.024789,-118.2499421,https://digitalcollections.nypl.org/items/29219280-892b-0132-4271-58d385a7bbd65
Tavern,Crisbar,2829 South Western Ave.,Los Angeles,CA,United States,"2829 South Western Ave., Los Angeles, California, United States",34.0292075,-118.309176,https://digitalcollections.nypl.org/items/29219280-892b-0132-4271-58d385a7bbd66
Tavern,Reney's ,2023 South Central Ave.,Los Angeles,CA,United States,"2023 South Central Ave., Los Angeles, California, United States",34.0233374,-118.251777,https://digitalcollections.nypl.org/items/29219280-892b-0132-4271-58d385a7bbd67
Tavern,Johnson's,4201 South Main St.,Los Angeles,CA,United States,"4201 South Main St., Los Angeles, California, United States",34.0071475,-118.274289,https://digitalcollections.nypl.org/items/29219280-892b-0132-4271-58d385a7bbd68
Tavern,Casa Blanca,2801 South San Pedro,Los Angeles,CA,United States,"2801 South San Pedro, Los Angeles, California, United States",34.0198396,-118.2626854,https://digitalcollections.nypl.org/items/29219280-892b-0132-4271-58d385a7bbd69
Night Club,Club Alabam,4215 South Central Ave.,Los Angeles,CA,United States,"4215 South Central Ave., Los Angeles, California, United States",34.0070176,-118.256511,https://digitalcollections.nypl.org/items/29219280-892b-0132-4271-58d385a7bbd70
Night Club,Down Beat,4201 South Central Ave.,Los Angeles,CA,United States,"4201 South Central Ave., Los Angeles, California, United States",34.0072416,-118.2567539,https://digitalcollections.nypl.org/items/29219280-892b-0132-4271-58d385a7bbd71
Night Club,Plantation ,108th & Central,Los Angeles,CA,United States,"S Central Ave & E 108th St, Los Angeles, California, United States",33.9382854,-118.2541916,https://digitalcollections.nypl.org/items/29219280-892b-0132-4271-58d385a7bbd72
Night Club,Cafe Society ,2711 South San Pedro Ave.,Los Angeles,CA,United States,"2711 South San Pedro St., Los Angeles, California, United States",34.0203837,-118.2622743,https://digitalcollections.nypl.org/items/29219280-892b-0132-4271-58d385a7bbd73
Night Club,Basket Room,3219 South Central Ave.,Los Angeles,CA,United States,"3219 South Central Ave., Los Angeles, California, United States",34.0141867,-118.2565341,https://digitalcollections.nypl.org/items/29219280-892b-0132-4271-58d385a7bbd74
Night Club,Harlem,118th & Parmalee Sts.,Los Angeles,CA,United States,"E 118th St & Parmelee Ave, Los Angeles, California, United States",33.9263609,-118.2504919,https://digitalcollections.nypl.org/items/29219280-892b-0132-4271-58d385a7bbd75
Night Club,Rumboogie,1751 1/2 East 103rd St.,Los Angeles,CA,United States,"1751 1/2 East 103rd St., Los Angeles, California, United States",33.9429313,-118.2356915,https://digitalcollections.nypl.org/items/29219280-892b-0132-4271-58d385a7bbd76
Night Club,Harlem,11812 Parmalee,Los Angeles,CA,United States,"11812 Parmelee, Los Angeles, California, United States",33.9263692,-118.2504918,https://digitalcollections.nypl.org/items/29219280-892b-0132-4271-58d385a7bbd77
Night Club,Tommy Brookins,1808 South Central Ave.,Los Angeles,CA,United States,"1808 South Central Ave., Los Angeles, California, United States",34.024789,-118.2499421,https://digitalcollections.nypl.org/items/29219280-892b-0132-4271-58d385a7bbd78
Night Club,Billy Bergs,1354 North Vine Street,Los Angeles,CA,United States,"1354 North Vine Street, Los Angeles, California, United States",34.0959292,-118.3264065,https://digitalcollections.nypl.org/items/29219280-892b-0132-4271-58d385a7bbd79
Road House,Casa Blanca,2801 South San Pedro St.,Los Angeles,CA,United States,"2801 South San Pedro St., Los Angeles, California, United States",34.0198396,-118.2626854,https://digitalcollections.nypl.org/items/29219280-892b-0132-4271-58d385a7bbd80
Liquor Store,House of Morgan,2729 South Central,Los Angeles,CA,United States,"2729 South Central, Los Angeles, California, United States",34.0170262,-118.2558364,https://digitalcollections.nypl.org/items/29219280-892b-0132-4271-58d385a7bbd81
Liquor Store,Mike's,10959 Wilmington,Los Angeles,CA,United States,"10959 Wilmington, Los Angeles, California, United States",33.9359631,-118.2391788,https://digitalcollections.nypl.org/items/29219280-892b-0132-4271-58d385a7bbd82
Liquor Store,Dunbar,4223 South Central Ave.,Los Angeles,CA,United States,"4223 South Central Ave., Los Angeles, California, United States",34.0069077,-118.2567159,https://digitalcollections.nypl.org/items/29219280-892b-0132-4271-58d385a7bbd83
Liquor Store,Jackson's ,5501 South Central Ave.,Los Angeles,CA,United States,"5501 South Central Ave., Los Angeles, California, United States",33.9924317,-118.2567338,https://digitalcollections.nypl.org/items/29219280-892b-0132-4271-58d385a7bbd84
Service Stations,Valentine's Service,2657 South Western Ave.,Los Angeles,CA,United States,"2657 South Western Ave., Los Angeles, California, United States",34.031138,-118.30928,https://digitalcollections.nypl.org/items/29219280-892b-0132-4271-58d385a7bbd85
Service Stations,Newton's,3903 South Central Ave.,Los Angeles,CA,United States,"3903 South Central Ave., Los Angeles, California, United States",33.8829399,-118.2488616,https://digitalcollections.nypl.org/items/29219280-892b-0132-4271-58d385a7bbd86
Service Stations,Hopkins Signal Ser.,3426 Central Ave.,Los Angeles,CA,United States,"3426 Central Ave., Los Angeles, California, United States",34.012127,-118.2565163,https://digitalcollections.nypl.org/items/29219280-892b-0132-4271-58d385a7bbd87
Service Stations,Long's ,2732 South Central Ave.,Los Angeles,CA,United States,"2732 South Central Ave., Los Angeles, California, United States",34.0167755,-118.2553912,https://digitalcollections.nypl.org/items/29219280-892b-0132-4271-58d385a7bbd88
Service Stations,Carner's ,4500 South Avalon Ave.,Los Angeles,CA,United States,"4500 South Avalon Blvd., Los Angeles, California, United States",34.0023743,-118.2648462,https://digitalcollections.nypl.org/items/29219280-892b-0132-4271-58d385a7bbd89
Service Stations,Simpkins & Cower,2227 South Central Ave.,Los Angeles,CA,United States,"2227 South Central Ave., Los Angeles, California, United States",34.0215907,-118.253597,https://digitalcollections.nypl.org/items/29219280-892b-0132-4271-58d385a7bbd90
Service Stations,Si Johnson's,3500 South Western Ave.,Los Angeles,CA,United States,"3500 South Western Ave., Los Angeles, California, United States",34.0243603,-118.3087005,https://digitalcollections.nypl.org/items/29219280-892b-0132-4271-58d385a7bbd91
Service Stations,Tom's,1424 West Jefferson Blvd.,Los Angeles,CA,United States,"1424 West Jefferson Blvd., Los Angeles, California, United States",34.0253091,-118.2979008,https://digitalcollections.nypl.org/items/29219280-892b-0132-4271-58d385a7bbd92
Service Stations,Hughes ,2901 West Jefferson Blvd.,Los Angeles,CA,United States,"2901 West Jefferson Blvd., Los Angeles, California, United States",34.025889,-118.327331,https://digitalcollections.nypl.org/items/29219280-892b-0132-4271-58d385a7bbd93
Service Stations,Brock,1246 West Jefferson Blvd.,Los Angeles,CA,United States,"1246 West Jefferson Blvd., Los Angeles, California, United States",34.0255015,-118.2932422,https://digitalcollections.nypl.org/items/29219280-892b-0132-4271-58d385a7bbd94
Service Stations,R. A. & S. ,Jefferson & Griffith,Los Angeles,CA,United States,"East Jefferson & Griffith, Los Angeles, California, United States",34.0137762,-118.2615332,https://digitalcollections.nypl.org/items/29219280-892b-0132-4271-58d385a7bbd95
Service Stations,Garcia,52nd Pl. and Central,Los Angeles,CA,United States,"South Central Ave & East 52nd St, Los Angeles, California, United States",33.9958421,-118.2564716,https://digitalcollections.nypl.org/items/29219280-892b-0132-4271-58d385a7bbd96
Garages,Parkers,2100 East 103rd St.,Los Angeles,CA,United States,"2100 East 103rd St., Los Angeles, California, United States",33.9428919,-118.2347028,https://digitalcollections.nypl.org/items/29219280-892b-0132-4271-58d385a7bbd97
Garages,La Clare,Jefferson at Hill,Los Angeles,CA,United States,"West Jefferson Blvd & Hill St, Los Angeles, California, United States",34.0196752,-118.2749077,https://digitalcollections.nypl.org/items/29219280-892b-0132-4271-58d385a7bbd98
Garages,McAdam's,1448 West Jefferson Blvd.,Los Angeles,CA,United States,"1448 West Jefferson Blvd., Los Angeles, California, United States",34.0251036,-118.2989223,https://digitalcollections.nypl.org/items/29219280-892b-0132-4271-58d385a7bbd99
Garages,Bill's,4106 Avalon Blvd.,Los Angeles,CA,United States,"4106 Avalon Blvd., Los Angeles, California, United States",34.0088322,-118.2652673,https://digitalcollections.nypl.org/items/29219280-892b-0132-4271-58d385a7bbd100
Garages,Alexander's ,Jefferson & Griffith,Los Angeles,CA,United States,"Jefferson & Griffith, Los Angeles, California, United States",34.0137762,-118.2615332,https://digitalcollections.nypl.org/items/29219280-892b-0132-4271-58d385a7bbd101
Automotive,Lee's,4820 South Central Ave.,Los Angeles,CA,United States,"4820 South Central Ave., Los Angeles, California, United States",33.9991893,-118.256246,https://digitalcollections.nypl.org/items/29219280-892b-0132-4271-58d385a7bbd102
Automotive,Auto Parts,864 North Virgil Ave.,Los Angeles,CA,United States,"864 North Virgil Ave., Los Angeles, California, United States",34.0873173,-118.28666,https://digitalcollections.nypl.org/items/29219280-892b-0132-4271-58d385a7bbd103
Drug Stores,Allums ,4375 South Central Ave.,Los Angeles,CA,United States,"4375 South Central Ave., Los Angeles, California, United States",34.0040906,-118.2567091,https://digitalcollections.nypl.org/items/29219280-892b-0132-4271-58d385a7bbd104
Drug Stores,Doctor's,4012 South Central Ave.,Los Angeles,CA,United States,"4012 South Central Ave., Los Angeles, California, United States",34.010729,-118.2565223,https://digitalcollections.nypl.org/items/29219280-892b-0132-4271-58d385a7bbd105
Drug Stores,Medical ,3112 South Western Ave.,Los Angeles,CA,United States,"3112 South Western Ave., Los Angeles, California, United States",34.0260464,-118.3085595,https://digitalcollections.nypl.org/items/29219280-892b-0132-4271-58d385a7bbd106
Drug Stores,Martinas,4406 Avalon Ave.,Los Angeles,CA,United States,"4406 South Avalon Ave., Los Angeles, California, United States",34.0035468,-118.2651273,https://digitalcollections.nypl.org/items/29219280-892b-0132-4271-58d385a7bbd107
Drug Stores,Slopers,2100 West Jefferson Blvd.,Los Angeles,CA,United States,"2100 West Jefferson Blvd., Los Angeles, California, United States",34.0255543,-118.3176617,https://digitalcollections.nypl.org/items/29219280-892b-0132-4271-58d385a7bbd108
Tailors,Bader's,1840 East 103rd St.,Los Angeles,CA,United States,"1840 East 103rd St., Los Angeles, California, United States",33.9431692,-118.2401678,https://digitalcollections.nypl.org/items/29219280-892b-0132-4271-58d385a7bbd109
Tailors,Delta,8512 Compton Ave.,Los Angeles,CA,United States,"8512 Compton Ave., Los Angeles, California, United States",33.9608672,-118.2474553,https://digitalcollections.nypl.org/items/29219280-892b-0132-4271-58d385a7bbd110
Tailors,Duver Bros.,811 East 5th St.,Los Angeles,CA,United States,"811 East 5th St., Los Angeles, California, United States",34.042239,-118.2407326,https://digitalcollections.nypl.org/items/29219280-892b-0132-4271-58d385a7bbd111
Tailors,Progressive,4302 South Central Ave.,Los Angeles,CA,United States,"4302 South Central Ave., Los Angeles, California, United States",34.0052523,-118.2565046,https://digitalcollections.nypl.org/items/29219280-892b-0132-4271-58d385a7bbd112
Tailors,Beason,2901 South Western Ave. ,Los Angeles,CA,United States,"2901 South Western Ave., Los Angeles, California, United States",34.0289622,-118.3091641,https://digitalcollections.nypl.org/items/29219280-892b-0132-4271-58d385a7bbd113